ONEWEB-0616             
1 55157U 23004T   23341.51764892  .00000001  00000+0 -29838-4 0  9992
2 55157  87.9211 189.2842 0000187 136.0216 224.0930 13.17645163 46199
ONEWEB-0617             
1 55158U 23004U   23341.10473065 -.00001077  00000+0 -30746-2 0  9990
2 55158  87.8992 204.5265 0002663  63.6033 296.5368 13.11408336 44884
ONEWEB-0618             
1 55159U 23004V   23341.52475232  .00000354  00000+0  13875-3 0  9995
2 55159  86.9097 161.6051 0013362 179.7896 180.3305 14.26628669 47874
ONEWEB-0619             
1 55160U 23004W   23340.56634979  .00000042  00000+0  75389-4 0  9998
2 55160  87.9208 189.4505 0001334  52.6894 307.4358 13.17646795 45963
ONEWEB-0620             
1 55161U 23004X   23341.17615572 -.00000014  00000+0 -75095-4 0  9990
2 55161  87.9010 204.5147 0002338  78.0890 282.0500 13.11413249 44853
ONEWEB-0621             
1 55162U 23004Y   23340.13398682 -.00000120  00000+0 -37503-3 0  9995
2 55162  87.8973 204.7014 0001648  61.8811 298.2484 13.11418731 44695
ONEWEB-0622             
1 55163U 23004Z   23340.14046640 -.00000010  00000+0 -65178-4 0  9999
2 55163  87.8994 204.7108 0002494  72.7295 287.4106 13.11420002 44684
ONEWEB-0623             
1 55164U 23004AA  23340.56002635  .00000006  00000+0 -16514-4 0  9996
2 55164  87.9189 189.5084 0002316  66.5928 293.5447 13.17646992 45953
